1 25479U 98053E   19273.45805076  .00000061  00000-0  73146-4 0  9991
2 25479  45.0104  19.6163 0004086 260.6502  99.3882 14.32858395 98169
1 25479U 98053E   19273.80666700 +.00000066 +00000-0 +74987-4 0  9998
2 25479 045.0104 017.9775 0004087 262.0371 098.0011 14.32858594098217
1 25479U 98053E   19274.50389931  .00000075  00000-0  78463-4 0  9997
2 25479  45.0105  14.6997 0004118 264.7355  95.3022 14.32858995 98312
1 25479U 98053E   19274.64334580 +.00000066 +00000-0 +75163-4 0  9996
2 25479 045.0105 014.0442 0004123 265.2769 094.7607 14.32858997098338
1 25479U 98053E   19275.61947087  .00000082  00000-0  80682-4 0  9996
2 25479  45.0106   9.4554 0004147 269.0617  90.9754 14.32859532 98473
1 25479U 98053E   19276.66531893  .00000087  00000-0  82804-4 0  9999
2 25479  45.0106   4.5389 0004165 273.1615  86.8755 14.32860006 98629
1 25479U 98053E   19276.73504213 +.00000088 +00000-0 +82949-4 0  9994
2 25479 045.0106 004.2111 0004166 273.4447 086.5923 14.32860036098634
1 25479U 98053E   19277.71116670  .00000093  00000-0  84843-4 0  9990
2 25479  45.0106 359.6224 0004179 277.2526  82.7845 14.32860447 98772
1 25479U 98053E   19278.68729095 +.00000099 +00000-0 +87103-4 0  9996
2 25479 045.0105 355.0337 0004189 281.0451 078.9924 14.32860876098914
1 25479U 98053E   19279.17535298  .00000102  00000-0  87917-4 0  9999
2 25479  45.0105 352.7392 0004195 282.9863  77.0515 14.32861084 98988
1 25479U 98053E   19279.66341496 +.00000098 +00000-0 +86800-4 0  9992
2 25479 045.0104 350.4449 0004194 284.9076 075.1306 14.32861288099054
1 25479U 98053E   19280.43036932  .00000097  00000-0  86350-4 0  9994
2 25479  45.0103 346.8394 0004195 287.8978  72.1411 14.32861647 99160
1 25479U 98053E   19280.63953867 +.00000098 +00000-0 +86641-4 0  9995
2 25479 045.0103 345.8561 0004194 288.7965 071.2426 14.32861756099190
1 25479U 98053E   19281.61566218  .00000090  00000-0  83892-4 0  9991
2 25479  45.0102 341.2673 0004193 292.7349  67.3054 14.32862200 99337
1 25479U 98053E   19282.59178548 +.00000081 +00000-0 +80606-4 0  9994
2 25479 045.0101 336.6784 0004185 296.6558 063.3860 14.32862628099473
1 25479U 98053E   19283.28901623  .00000079  00000-0  79563-4 0  9996
2 25479  45.0100 333.4006 0004177 299.4528  60.5901 14.32862952 99579
1 25479U 98053E   19283.56790852 +.00000084 +00000-0 +81624-4 0  9994
2 25479 045.0100 332.0896 0004169 300.6591 059.3844 14.32863106099616
1 25479U 98053E   19284.47430823  .00000092  00000-0  84288-4 0  9992
2 25479  45.0099 327.8284 0004149 304.3577  55.6876 14.32863538 99746
1 25479U 98053E   19284.61375430 +.00000094 +00000-0 +85316-4 0  9995
2 25479 045.0098 327.1728 0004146 304.9450 055.1006 14.32863620099768
